OBJECT_NAME,OBJECT_ID,EPOCH,MEAN_MOTION,ECCENTRICITY,INCLINATION,RA_OF_ASC_NODE,ARG_OF_PERICENTER,MEAN_ANOMALY,EPHEMERIS_TYPE,CLASSIFICATION_TYPE,NORAD_CAT_ID,ELEMENT_SET_NO,REV_AT_EPOCH,BSTAR,MEAN_MOTION_DOT,MEAN_MOTION_DDOT
MERIDIAN 10,2022-030A,2026-06-10T23:43:38.625600,2.00614319,.67819912,62.6774,141.4643,272.8584,17.6697,0,U,52145,999,3090,0,.244E-5,0
OMNI-L1,2022-033A,2026-06-11T10:37:31.814976,14.82727675,.0003984,97.8395,241.7314,313.2112,46.8769,0,U,52157,999,22660,.21338E-3,.1671E-4,0
ENMAP,2022-033C,2026-06-11T16:05:38.052384,14.74985461,.0001415,97.9790,244.9988,84.8955,275.2416,0,U,52159,999,22584,.1503E-3,.96E-5,0
ARCSAT-1,2022-033E,2026-06-11T12:31:22.548864,15.53490793,.0004374,97.2754,254.7111,201.0351,159.0723,0,U,52161,999,23482,.19844E-3,.12503E-3,0
GLOBAL-18,2022-034B,2026-06-11T15:09:07.298208,15.46043673,.0003087,52.9819,283.1883,249.2112,110.8562,0,U,52196,999,23610,.45571E-3,.22262E-3,0
GAOFEN-3 03,2022-035A,2026-06-11T17:58:17.003424,14.42213908,.0001178,98.4065,171.4079,99.8597,260.2726,0,U,52200,999,22006,-.15741E-4,-.95E-6,0
DAQI-1,2022-039A,2026-06-11T17:20:29.806080,14.57673721,.0002291,98.1477,101.6870,280.4138,79.6803,0,U,52257,999,22114,.13452E-4,.16E-6,0
BRO-6,2022-047AE,2026-06-11T17:11:15.182016,15.50178084,.0005486,97.3401,253.6678,96.8018,263.3858,0,U,52422,999,23030,.59883E-3,.33789E-3,0
JILIN-1 GAOFEN 3D27,2022-048B,2026-06-11T16:33:59.772096,15.74083466,.0001544,97.5705,276.1331,70.1854,289.9576,0,U,52444,999,22861,.7786E-3,.112078E-2,0
JILIN-1 GAOFEN 3D28,2022-048C,2026-06-11T16:47:48.526080,15.76927336,.000106,97.5640,276.2719,151.1556,208.9768,0,U,52445,999,22866,.82346E-3,.134464E-2,0
VIGORIDE-3,2022-057AE,2026-06-11T10:49:27.532704,15.27220077,.0009319,97.6590,302.2740,138.1149,222.0804,0,U,52760,999,22428,.19966E-3,.5254E-4,0
ION SCV-006,2022-057AF,2026-06-11T15:51:22.217184,15.45153445,.0018251,97.6086,311.0187,132.3206,227.9592,0,U,52761,999,22526,.26089E-3,.12349E-3,0
SHERPA-AC1,2022-057AH,2026-06-11T15:51:14.484384,15.36189019,.0008925,97.6674,311.6575,110.0685,250.1519,0,U,52763,999,22485,.2024E-3,.7059E-4,0
OMNI-L2,2022-057AR,2026-06-11T15:37:46.527744,14.81356282,.0006275,97.4717,225.3816,356.8374,3.2799,0,U,52771,999,21957,.15979E-3,.1201E-4,0
STEP CUBE LAB-II,2022-065D,2026-06-11T15:58:25.820832,14.63295434,.0009632,98.2218,306.5849,48.1035,312.0986,0,U,52897,999,21069,.16959E-3,.827E-5,0
RANDEV,2022-065E,2026-06-11T16:02:04.918272,14.63682195,.0008949,98.2205,306.9365,48.8853,311.3121,0,U,52898,999,21044,.15865E-3,.778E-5,0
SNUGLITE-II,2022-065F,2026-06-11T15:11:24.609408,14.64337670,.0008329,98.2195,307.4736,48.8269,311.3650,0,U,52899,999,21018,.16702E-3,.834E-5,0
MIMAN,2022-065G,2026-06-11T08:48:41.925024,14.61837820,.0008546,98.2253,304.8791,51.2785,308.9179,0,U,52900,999,20959,.98803E-4,.446E-5,0
STARLINK-4362,2022-077A,2026-06-11T11:36:36.874368,15.05620773,.0002271,97.3732,341.6900,73.8280,286.3197,0,U,53043,999,21502,.39078E-3,.5581E-4,0
LARES-2,2022-080A,2026-06-11T09:04:16.246848,6.38965132,.0005423,70.1631,307.3215,335.1501,24.8749,0,U,53105,999,9129,0,-.14E-6,0
GREENCUBE (IO-117),2022-080E,2026-06-01T11:09:37.753056,6.42583280,.00088692,70.1435,303.7143,293.3663,66.6064,0,U,53109,999,9105,0,-.3E-7,0
STARLINK-4410,2022-084R,2026-06-11T18:00:02.000160,15.28461436,.0001613,97.6024,223.7155,80.5841,92.6608,0,U,53204,999,579,.94854E-2,.272198E-2,0
COSMOS 2558,2022-089A,2026-06-11T16:20:49.212096,15.74038676,.0000697,97.2253,266.5256,216.3163,143.8055,0,U,53323,999,21696,.71807E-3,.103038E-2,0
TECMS,2022-090A,2026-06-11T16:47:54.932640,15.21369449,.0002867,97.3144,230.9637,194.1059,166.0098,0,U,53346,999,21397,.14375E-3,.3154E-4,0
DONGPO 02,2022-098J,2026-06-11T17:03:21.494880,15.73529641,.0001754,97.5510,293.4298,291.3005,68.8071,0,U,53452,999,21393,.61079E-3,.8557E-3,0
DONGPO 01,2022-098K,2026-06-11T16:39:10.348992,15.71475693,.0001449,97.5570,293.9519,239.2078,120.9042,0,U,53453,999,21389,.69404E-3,.89208E-3,0
STARLINK-4400,2022-099D,2026-06-11T14:18:06.325920,15.05664336,.0001481,97.3735,281.8812,127.0933,233.0430,0,U,53468,999,21010,-.11235E-3,-.1679E-4,0
STARLINK-4621,2022-105AE,2026-06-11T15:57:47.699424,15.05649809,.0002416,97.3743,41.9570,85.2142,274.9362,0,U,53676,999,20737,.52807E-4,.704E-5,0
SHERPA-LTC2,2022-107BG,2026-06-11T13:00:26.779968,14.69647223,.0394453,53.2356,244.2272,210.2113,147.5582,0,U,53754,999,20171,.33449E-3,.6581E-4,0
CENTISPACE-1 S3,2022-108A,2026-06-11T16:00:49.982688,14.61245724,.0009018,53.5332,78.0842,339.6873,20.3742,0,U,53757,999,20072,.12174E-3,.416E-5,0
CENTISPACE-1 S4,2022-108B,2026-06-11T15:41:54.590784,14.61924862,.0008254,53.5307,75.6827,327.1768,32.8694,0,U,53758,999,20075,.15095E-3,.571E-5,0
