MERIDIAN 10             
1 52145U 22030A   26161.98864150  .00000244  00000+0  00000+0 0  9999
2 52145  62.6774 141.4643 6781991 272.8584  17.6697  2.00614319 30905
OMNI-L1                 
1 52157U 22033A   26162.44272934  .00001671  00000+0  21338-3 0  9996
2 52157  97.8395 241.7314 0003984 313.2112  46.8769 14.82727675226607
ENMAP                   
1 52159U 22033C   26162.67057931  .00000960  00000+0  15030-3 0  9993
2 52159  97.9790 244.9988 0001415  84.8955 275.2416 14.74985461225846
ARCSAT-1                
1 52161U 22033E   26162.52178876  .00012503  00000+0  19844-3 0  9995
2 52161  97.2754 254.7111 0004374 201.0351 159.0723 15.53490793234824
GLOBAL-18               
1 52196U 22034B   26162.63133447  .00022262  00000+0  45571-3 0  9990
2 52196  52.9819 283.1883 0003087 249.2112 110.8562 15.46043673236105
GAOFEN-3 03             
1 52200U 22035A   26162.74880791 -.00000095  00000+0 -15741-4 0  9999
2 52200  98.4065 171.4079 0001178  99.8597 260.2726 14.42213908220065
DAQI-1                  
1 52257U 22039A   26162.72256720  .00000016  00000+0  13452-4 0  9990
2 52257  98.1477 101.6870 0002291 280.4138  79.6803 14.57673721221148
BRO-6                   
1 52422U 22047AE  26162.71614794  .00033789  00000+0  59883-3 0  9991
2 52422  97.3401 253.6678 0005486  96.8018 263.3858 15.50178084230305
JILIN-1 GAOFEN 3D27     
1 52444U 22048B   26162.69027514  .00112078  00000+0  77860-3 0  9995
2 52444  97.5705 276.1331 0001544  70.1854 289.9576 15.74083466228615
JILIN-1 GAOFEN 3D28     
1 52445U 22048C   26162.69986720  .00134464  00000+0  82346-3 0  9997
2 52445  97.5640 276.2719 0001060 151.1556 208.9768 15.76927336228661
VIGORIDE-3              
1 52760U 22057AE  26162.45101311  .00005254  00000+0  19966-3 0  9998
2 52760  97.6590 302.2740 0009319 138.1149 222.0804 15.27220077224284
ION SCV-006             
1 52761U 22057AF  26162.66067381  .00012349  00000+0  26089-3 0  9997
2 52761  97.6086 311.0187 0018251 132.3206 227.9592 15.45153445225264
SHERPA-AC1              
1 52763U 22057AH  26162.66058431  .00007059  00000+0  20240-3 0  9990
2 52763  97.6674 311.6575 0008925 110.0685 250.1519 15.36189019224854
OMNI-L2                 
1 52771U 22057AR  26162.65123296  .00001201  00000+0  15979-3 0  9996
2 52771  97.4717 225.3816 0006275 356.8374   3.2799 14.81356282219576
STEP CUBE LAB-II        
1 52897U 22065D   26162.66557663  .00000827  00000+0  16959-3 0  9996
2 52897  98.2218 306.5849 0009632  48.1035 312.0986 14.63295434210697
RANDEV                  
1 52898U 22065E   26162.66811248  .00000778  00000+0  15865-3 0  9999
2 52898  98.2205 306.9365 0008949  48.8853 311.3121 14.63682195210446
SNUGLITE-II             
1 52899U 22065F   26162.63292372  .00000834  00000+0  16702-3 0  9992
2 52899  98.2195 307.4736 0008329  48.8269 311.3650 14.64337670210180
MIMAN                   
1 52900U 22065G   26162.36715191  .00000446  00000+0  98803-4 0  9996
2 52900  98.2253 304.8791 0008546  51.2785 308.9179 14.61837820209592
STARLINK-4362           
1 53043U 22077A   26162.48376012  .00005581  00000+0  39078-3 0  9999
2 53043  97.3732 341.6900 0002271  73.8280 286.3197 15.05620773215023
LARES-2                 
1 53105U 22080A   26162.37796582 -.00000014  00000+0  00000+0 0  9994
2 53105  70.1631 307.3215 0005423 335.1501  24.8749  6.38965132 91295
GREENCUBE (IO-117)      
1 53109U 22080E   26152.46502029 -.00000003  00000+0  00000+0 0  9996
2 53109  70.1435 303.7143 0008869 293.3663  66.6064  6.42583280 91055
STARLINK-4410           
1 53204U 22084R   26162.75002315  .00272198  00000+0  94854-2 0  9990
2 53204  97.6024 223.7155 0001613  80.5841  92.6608 15.28461436  5798
COSMOS 2558             
1 53323U 22089A   26162.68112514  .00103038  00000+0  71807-3 0  9992
2 53323  97.2253 266.5256 0000697 216.3163 143.8055 15.74038676216969
TECMS                   
1 53346U 22090A   26162.69994135  .00003154  00000+0  14375-3 0  9992
2 53346  97.3144 230.9637 0002867 194.1059 166.0098 15.21369449213979
DONGPO 02               
1 53452U 22098J   26162.71066545  .00085570  00000+0  61079-3 0  9991
2 53452  97.5510 293.4298 0001754 291.3005  68.8071 15.73529641213933
DONGPO 01               
1 53453U 22098K   26162.69386978  .00089208  00000+0  69404-3 0  9996
2 53453  97.5570 293.9519 0001449 239.2078 120.9042 15.71475693213891
STARLINK-4400           
1 53468U 22099D   26162.59590655 -.00001679  00000+0 -11235-3 0  9998
2 53468  97.3735 281.8812 0001481 127.0933 233.0430 15.05664336210109
STARLINK-4621           
1 53676U 22105AE  26162.66513541  .00000704  00000+0  52807-4 0  9991
2 53676  97.3743  41.9570 0002416  85.2142 274.9362 15.05649809207372
SHERPA-LTC2             
1 53754U 22107BG  26162.54197662  .00006581  00000+0  33449-3 0  9998
2 53754  53.2356 244.2272 0394453 210.2113 147.5582 14.69647223201718
CENTISPACE-1 S3         
1 53757U 22108A   26162.66724517  .00000416  00000+0  12174-3 0  9993
2 53757  53.5332  78.0842 0009018 339.6873  20.3742 14.61245724200721
CENTISPACE-1 S4         
1 53758U 22108B   26162.65410406  .00000571  00000+0  15095-3 0  9999
2 53758  53.5307  75.6827 0008254 327.1768  32.8694 14.61924862200750
